{
  "type": "FeatureCollection",
  "crs": {
    "type": "name",
    "properties": {
      "name": "EPSG:4326"
    }
  },
  "features": [
    {
      "type": "Feature",
      "properties": {
        "local_code": "B1",
        "su_class": "BUILDING"
      },
      "geometry": {
        "type": "Polygon",
        "coordinates": [
          [
            [
              73.80779421551496,
              18.507472886503585
            ],
            [
              73.80800259096658,
              18.507474199635315
            ],
            [
              73.80800159002673,
              18.50761877874895
            ],
            [
              73.80779321440025,
              18.50761746560623
            ],
            [
              73.80779421551496,
              18.507472886503585
            ]
          ]
        ]
      }
    }
  ]
}