{
  "type": "Feature",
  "properties": {
    "geom_origin": "AI_DERIVED",
    "method": "ndsm-min-max-morph",
    "iou_vs_authored_building": 0.9376654769129386,
    "not_legal_title": true
  },
  "geometry": {
    "type": "Polygon",
    "coordinates": [
      [
        [
          73.8077963331404,
          18.50750904620273
        ],
        [
          73.80779090944957,
          18.50760835903247
        ],
        [
          73.80779685283947,
          18.507614960229848
        ],
        [
          73.80799681172786,
          18.50761648949243
        ],
        [
          73.80800373100925,
          18.507610819321354
        ],
        [
          73.80800486464807,
          18.507487824304494
        ],
        [
          73.80799895253321,
          18.50747670501603
        ],
        [
          73.80798746163671,
          18.50747653793334
        ],
        [
          73.80797883373747,
          18.507485345670588
        ],
        [
          73.80797527350343,
          18.507476555807592
        ],
        [
          73.80795949135668,
          18.507476233279053
        ],
        [
          73.80795041890053,
          18.507485166617005
        ],
        [
          73.80794685866799,
          18.507476376753555
        ],
        [
          73.80793130632902,
          18.50747602317957
        ],
        [
          73.80792200406393,
          18.50748498755916
        ],
        [
          73.80791844383288,
          18.507476197695258
        ],
        [
          73.80790289149414,
          18.507475844118943
        ],
        [
          73.80789358922765,
          18.507484808497047
        ],
        [
          73.80789002899807,
          18.50747601863269
        ],
        [
          73.80787447665956,
          18.507475665054038
        ],
        [
          73.80786517439168,
          18.507484629430664
        ],
        [
          73.8078616141636,
          18.50747583956586
        ],
        [
          73.80784606182532,
          18.507475485984877
        ],
        [
          73.80783675955604,
          18.507484450360025
        ],
        [
          73.80783319932945,
          18.507475660494762
        ],
        [
          73.80781793702941,
          18.5074752951495
        ],
        [
          73.80780834472074,
          18.50748427128511
        ],
        [
          73.80779847396134,
          18.50747521856971
        ],
        [
          73.80779176953331,
          18.507486204802607
        ],
        [
          73.8077963331404,
          18.50750904620273
        ]
      ]
    ]
  }
}