{
  "type": "FeatureCollection",
  "crs": {
    "type": "name",
    "properties": {
      "name": "EPSG:4326"
    }
  },
  "features": [
    {
      "type": "Feature",
      "properties": {
        "local_code": "F01",
        "level": 1,
        "zmin": 0.0,
        "zmax": 3.0
      },
      "geometry": {
        "type": "Polygon",
        "coordinates": [
          [
            [
              73.80779421551496,
              18.507472886503585
            ],
            [
              73.80800259096658,
              18.507474199635315
            ],
            [
              73.80800159002673,
              18.50761877874895
            ],
            [
              73.80779321440025,
              18.50761746560623
            ],
            [
              73.80779421551496,
              18.507472886503585
            ]
          ]
        ]
      }
    },
    {
      "type": "Feature",
      "properties": {
        "local_code": "F02",
        "level": 2,
        "zmin": 3.0,
        "zmax": 6.0
      },
      "geometry": {
        "type": "Polygon",
        "coordinates": [
          [
            [
              73.80779421551496,
              18.507472886503585
            ],
            [
              73.80800259096658,
              18.507474199635315
            ],
            [
              73.80800159002673,
              18.50761877874895
            ],
            [
              73.80779321440025,
              18.50761746560623
            ],
            [
              73.80779421551496,
              18.507472886503585
            ]
          ]
        ]
      }
    },
    {
      "type": "Feature",
      "properties": {
        "local_code": "F03",
        "level": 3,
        "zmin": 6.0,
        "zmax": 9.0
      },
      "geometry": {
        "type": "Polygon",
        "coordinates": [
          [
            [
              73.80779421551496,
              18.507472886503585
            ],
            [
              73.80800259096658,
              18.507474199635315
            ],
            [
              73.80800159002673,
              18.50761877874895
            ],
            [
              73.80779321440025,
              18.50761746560623
            ],
            [
              73.80779421551496,
              18.507472886503585
            ]
          ]
        ]
      }
    },
    {
      "type": "Feature",
      "properties": {
        "local_code": "F04",
        "level": 4,
        "zmin": 9.0,
        "zmax": 12.0
      },
      "geometry": {
        "type": "Polygon",
        "coordinates": [
          [
            [
              73.80779421551496,
              18.507472886503585
            ],
            [
              73.80800259096658,
              18.507474199635315
            ],
            [
              73.80800159002673,
              18.50761877874895
            ],
            [
              73.80779321440025,
              18.50761746560623
            ],
            [
              73.80779421551496,
              18.507472886503585
            ]
          ]
        ]
      }
    },
    {
      "type": "Feature",
      "properties": {
        "local_code": "F05",
        "level": 5,
        "zmin": 12.0,
        "zmax": 15.0
      },
      "geometry": {
        "type": "Polygon",
        "coordinates": [
          [
            [
              73.80779421551496,
              18.507472886503585
            ],
            [
              73.80800259096658,
              18.507474199635315
            ],
            [
              73.80800159002673,
              18.50761877874895
            ],
            [
              73.80779321440025,
              18.50761746560623
            ],
            [
              73.80779421551496,
              18.507472886503585
            ]
          ]
        ]
      }
    }
  ]
}