{
  "type": "FeatureCollection",
  "crs": {
    "type": "name",
    "properties": {
      "name": "EPSG:4326"
    }
  },
  "features": [
    {
      "type": "Feature",
      "properties": {
        "local_code": "F05-U501-DUP",
        "zmin": 12.0,
        "zmax": 15.0,
        "note": "seeded topology error"
      },
      "geometry": {
        "type": "Polygon",
        "coordinates": [
          [
            [
              73.80779421551496,
              18.507472886503585
            ],
            [
              73.80788798446602,
              18.507473477441245
            ],
            [
              73.80788698343001,
              18.507618056548846
            ],
            [
              73.80779321440025,
              18.50761746560623
            ],
            [
              73.80779421551496,
              18.507472886503585
            ]
          ]
        ]
      }
    }
  ]
}