{
  "type": "FeatureCollection",
  "crs": {
    "type": "name",
    "properties": {
      "name": "EPSG:4326"
    }
  },
  "features": [
    {
      "type": "Feature",
      "properties": {
        "local_code": "LOT",
        "su_class": "PARCEL"
      },
      "geometry": {
        "type": "Polygon",
        "coordinates": [
          [
            [
              73.8077,
              18.507400000000004
            ],
            [
              73.80809780751342,
              18.50740250687738
            ],
            [
              73.80809580579273,
              18.50769166511463
            ],
            [
              73.8076979976116,
              18.50768915819533
            ],
            [
              73.8077,
              18.507400000000004
            ]
          ]
        ]
      }
    }
  ]
}