{
  "type": "FeatureCollection",
  "crs": {
    "type": "name",
    "properties": {
      "name": "EPSG:4326"
    }
  },
  "features": [
    {
      "type": "Feature",
      "properties": {
        "local_code": "F02-U201",
        "zmin": 3.0,
        "zmax": 6.0
      },
      "geometry": {
        "type": "Polygon",
        "coordinates": [
          [
            [
              73.80779421551496,
              18.507472886503585
            ],
            [
              73.80788798446602,
              18.507473477441245
            ],
            [
              73.80788698343001,
              18.507618056548846
            ],
            [
              73.80779321440025,
              18.50761746560623
            ],
            [
              73.80779421551496,
              18.507472886503585
            ]
          ]
        ]
      }
    },
    {
      "type": "Feature",
      "properties": {
        "local_code": "F02-U202",
        "zmin": 3.0,
        "zmax": 6.0
      },
      "geometry": {
        "type": "Polygon",
        "coordinates": [
          [
            [
              73.80790882201119,
              18.507473608754424
            ],
            [
              73.80800259096658,
              18.507474199635315
            ],
            [
              73.80800159002673,
              18.50761877874895
            ],
            [
              73.80790782099265,
              18.507618187863116
            ],
            [
              73.80790882201119,
              18.507473608754424
            ]
          ]
        ]
      }
    },
    {
      "type": "Feature",
      "properties": {
        "local_code": "F03-U301",
        "zmin": 6.0,
        "zmax": 9.0
      },
      "geometry": {
        "type": "Polygon",
        "coordinates": [
          [
            [
              73.80779421551496,
              18.507472886503585
            ],
            [
              73.80788798446602,
              18.507473477441245
            ],
            [
              73.80788698343001,
              18.507618056548846
            ],
            [
              73.80779321440025,
              18.50761746560623
            ],
            [
              73.80779421551496,
              18.507472886503585
            ]
          ]
        ]
      }
    },
    {
      "type": "Feature",
      "properties": {
        "local_code": "F03-U302",
        "zmin": 6.0,
        "zmax": 9.0
      },
      "geometry": {
        "type": "Polygon",
        "coordinates": [
          [
            [
              73.80790882201119,
              18.507473608754424
            ],
            [
              73.80800259096658,
              18.507474199635315
            ],
            [
              73.80800159002673,
              18.50761877874895
            ],
            [
              73.80790782099265,
              18.507618187863116
            ],
            [
              73.80790882201119,
              18.507473608754424
            ]
          ]
        ]
      }
    },
    {
      "type": "Feature",
      "properties": {
        "local_code": "F04-U401",
        "zmin": 9.0,
        "zmax": 12.0
      },
      "geometry": {
        "type": "Polygon",
        "coordinates": [
          [
            [
              73.80779421551496,
              18.507472886503585
            ],
            [
              73.80788798446602,
              18.507473477441245
            ],
            [
              73.80788698343001,
              18.507618056548846
            ],
            [
              73.80779321440025,
              18.50761746560623
            ],
            [
              73.80779421551496,
              18.507472886503585
            ]
          ]
        ]
      }
    },
    {
      "type": "Feature",
      "properties": {
        "local_code": "F04-U402",
        "zmin": 9.0,
        "zmax": 12.0
      },
      "geometry": {
        "type": "Polygon",
        "coordinates": [
          [
            [
              73.80790882201119,
              18.507473608754424
            ],
            [
              73.80800259096658,
              18.507474199635315
            ],
            [
              73.80800159002673,
              18.50761877874895
            ],
            [
              73.80790782099265,
              18.507618187863116
            ],
            [
              73.80790882201119,
              18.507473608754424
            ]
          ]
        ]
      }
    },
    {
      "type": "Feature",
      "properties": {
        "local_code": "F05-U501",
        "zmin": 12.0,
        "zmax": 15.0
      },
      "geometry": {
        "type": "Polygon",
        "coordinates": [
          [
            [
              73.80779421551496,
              18.507472886503585
            ],
            [
              73.80788798446602,
              18.507473477441245
            ],
            [
              73.80788698343001,
              18.507618056548846
            ],
            [
              73.80779321440025,
              18.50761746560623
            ],
            [
              73.80779421551496,
              18.507472886503585
            ]
          ]
        ]
      }
    },
    {
      "type": "Feature",
      "properties": {
        "local_code": "F05-U502",
        "zmin": 12.0,
        "zmax": 15.0
      },
      "geometry": {
        "type": "Polygon",
        "coordinates": [
          [
            [
              73.80790882201119,
              18.507473608754424
            ],
            [
              73.80800259096658,
              18.507474199635315
            ],
            [
              73.80800159002673,
              18.50761877874895
            ],
            [
              73.80790782099265,
              18.507618187863116
            ],
            [
              73.80790882201119,
              18.507473608754424
            ]
          ]
        ]
      }
    },
    {
      "type": "Feature",
      "properties": {
        "local_code": "F02-COMMON",
        "zmin": 3.0,
        "zmax": 6.0
      },
      "geometry": {
        "type": "Polygon",
        "coordinates": [
          [
            [
              73.80788798446602,
              18.507473477441245
            ],
            [
              73.80790882201119,
              18.507473608754424
            ],
            [
              73.80790782099265,
              18.507618187863116
            ],
            [
              73.80788698343001,
              18.507618056548846
            ],
            [
              73.80788798446602,
              18.507473477441245
            ]
          ]
        ]
      }
    },
    {
      "type": "Feature",
      "properties": {
        "local_code": "F03-COMMON",
        "zmin": 6.0,
        "zmax": 9.0
      },
      "geometry": {
        "type": "Polygon",
        "coordinates": [
          [
            [
              73.80788798446602,
              18.507473477441245
            ],
            [
              73.80790882201119,
              18.507473608754424
            ],
            [
              73.80790782099265,
              18.507618187863116
            ],
            [
              73.80788698343001,
              18.507618056548846
            ],
            [
              73.80788798446602,
              18.507473477441245
            ]
          ]
        ]
      }
    },
    {
      "type": "Feature",
      "properties": {
        "local_code": "F04-COMMON",
        "zmin": 9.0,
        "zmax": 12.0
      },
      "geometry": {
        "type": "Polygon",
        "coordinates": [
          [
            [
              73.80788798446602,
              18.507473477441245
            ],
            [
              73.80790882201119,
              18.507473608754424
            ],
            [
              73.80790782099265,
              18.507618187863116
            ],
            [
              73.80788698343001,
              18.507618056548846
            ],
            [
              73.80788798446602,
              18.507473477441245
            ]
          ]
        ]
      }
    },
    {
      "type": "Feature",
      "properties": {
        "local_code": "F05-COMMON",
        "zmin": 12.0,
        "zmax": 15.0
      },
      "geometry": {
        "type": "Polygon",
        "coordinates": [
          [
            [
              73.80788798446602,
              18.507473477441245
            ],
            [
              73.80790882201119,
              18.507473608754424
            ],
            [
              73.80790782099265,
              18.507618187863116
            ],
            [
              73.80788698343001,
              18.507618056548846
            ],
            [
              73.80788798446602,
              18.507473477441245
            ]
          ]
        ]
      }
    },
    {
      "type": "Feature",
      "properties": {
        "local_code": "F01-PARK",
        "zmin": 0.0,
        "zmax": 3.0
      },
      "geometry": {
        "type": "Polygon",
        "coordinates": [
          [
            [
              73.80779421551496,
              18.507472886503585
            ],
            [
              73.80800259096658,
              18.507474199635315
            ],
            [
              73.80800159002673,
              18.50761877874895
            ],
            [
              73.80779321440025,
              18.50761746560623
            ],
            [
              73.80779421551496,
              18.507472886503585
            ]
          ]
        ]
      }
    },
    {
      "type": "Feature",
      "properties": {
        "local_code": "AIR-B1",
        "zmin": 15.0,
        "zmax": 25.0,
        "note": "air-rights slab above authored roof. Proposed volume, not a title."
      },
      "geometry": {
        "type": "Polygon",
        "coordinates": [
          [
            [
              73.80779421551496,
              18.507472886503585
            ],
            [
              73.80800259096658,
              18.507474199635315
            ],
            [
              73.80800159002673,
              18.50761877874895
            ],
            [
              73.80779321440025,
              18.50761746560623
            ],
            [
              73.80779421551496,
              18.507472886503585
            ]
          ]
        ]
      }
    },
    {
      "type": "Feature",
      "properties": {
        "local_code": "TRN-ELV-01",
        "zmin": 8.0,
        "zmax": 14.0,
        "note": "elevated flyover in the west setback. Proposed volume, not a title."
      },
      "geometry": {
        "type": "Polygon",
        "coordinates": [
          [
            [
              73.80771417612344,
              18.507404607642638
            ],
            [
              73.80777100576613,
              18.50740496581499
            ],
            [
              73.80776906606788,
              18.50768508782396
            ],
            [
              73.80771223633278,
              18.5076847296458
            ],
            [
              73.80771417612344,
              18.507404607642638
            ]
          ]
        ]
      }
    }
  ]
}